[{"OBJECT_ID":"2014-038D","OBJECT_NAME":"O3B FM8","NORAD_CAT_ID":"40082","OBJECT_TYPE":"PAYLOAD","PERIOD":"287.933","INCLINATION":"0.0387","APOGEE":"8070.031","PERIGEE":"8061.763","ECCENTRICITY":"0.0002862","MEAN_MOTION":"5.00115207","TLE_LINE1":"1 40082U 14038D   16238.09005191 -.00000027 +00000-0 +00000-0 0  9995","TLE_LINE2":"2 40082 000.0387 012.6766 0002862 166.2088 181.1143 05.00115207038833","LAUNCH_DATE":"2014-07-10","LAUNCH_SITE":"FRENCH GUIANA","OWNER":"O3B NETWORKS","ORBIT_TYPE":"Unclassified","OPERATIONAL_STATUS":"Operational","satInfo":{"lng":-89.45974489072577,"lat":-0.06336758037396893,"elevation":-23.811847379344663,"azimuth":44.45974489072578,"range":15785.243476606145,"height":8063.415451434648,"velocity":5.254665461079687},"x":-61,"y":-1,"dx":0.04954671739929961,"dy":-5.254431865640542},{"OBJECT_ID":"2014-038E","OBJECT_NAME":"FREGAT R/B","NORAD_CAT_ID":"40083","OBJECT_TYPE":"ROCKET BODY","PERIOD":"276.323","INCLINATION":"0.144","APOGEE":"7689.240","PERIGEE":"7660.712","ECCENTRICITY":"0.001015","MEAN_MOTION":"5.2112752","TLE_LINE1":"1 40083U 14038E   16238.54097287 -.00000025  00000-0  00000+0 0  9990","TLE_LINE2":"2 40083   0.1440  15.3326 0010150 243.8950 100.6572  5.21127520 40464","LAUNCH_DATE":"2014-07-10","LAUNCH_SITE":"FRENCH GUIANA","OWNER":"COMMONWEALTH OF INDEPENDENT STATES","ORBIT_TYPE":"Unclassified","OPERATIONAL_STATUS":"N/A, derelict rocket body","satInfo":{"lng":171.8585998080829,"lat":-0.22243829852310423,"elevation":-24.543502001428287,"azimuth":143.1414001919171,"range":15435.032283814762,"height":7662.386203040164,"velocity":5.331139302870213},"x":8,"y":60,"dx":-5.277409886258258,"dy":0.7549775884296797},{"OBJECT_ID":"2014-054A","OBJECT_NAME":"OPTUS 10","NORAD_CAT_ID":"40146","OBJECT_TYPE":"PAYLOAD","PERIOD":"1436.127","INCLINATION":"0.0505","APOGEE":"35793.593","PERIGEE":"35780.792","ECCENTRICITY":"0.0001518","MEAN_MOTION":"1.00269658","TLE_LINE1":"1 40146U 14054A   16238.61581977 -.00000101  00000-0  00000+0 0  9995","TLE_LINE2":"2 40146   0.0505 111.5368 0001518  44.1142 204.3562  1.00269658  7201","LAUNCH_DATE":"2014-09-11","LAUNCH_SITE":"FRENCH GUIANA","OWNER":"AUSTRALIA","ORBIT_TYPE":"Geosynchronous","OPERATIONAL_STATUS":"Operational","satInfo":{"lng":1.161533565682041,"lat":1.301266242793741,"elevation":-7.304427197710595,"azimuth":313.8384664343179,"range":42480.11460630732,"height":35768.093577239895,"velocity":3.0755328733802387},"x":5,"y":-282,"dx":3.074900907301254,"dy":0.062344731296499804},{"OBJECT_ID":"2014-058B","OBJECT_NAME":"BREEZE-M R/B","NORAD_CAT_ID":"40259","OBJECT_TYPE":"ROCKET BODY","PERIOD":"1570.546","INCLINATION":"1.5333","APOGEE":"40975.851","PERIGEE":"35781.831","ECCENTRICITY":"0.0580247","MEAN_MOTION":"0.91687822","TLE_LINE1":"1 40259U 14058B   16237.97309419 -.00000193  00000-0  00000+0 0  9992","TLE_LINE2":"2 40259   1.5333  79.4729 0580247 124.7199 241.4998  0.91687822  6404","LAUNCH_DATE":"2014-09-27","LAUNCH_SITE":"TYURATAM MISSILE AND SPACE COMPLEX","OWNER":"COMMONWEALTH OF INDEPENDENT STATES","ORBIT_TYPE":"Unclassified","OPERATIONAL_STATUS":"N/A, derelict rocket body","satInfo":{"lng":-174.28365683166024,"lat":-3.7563543704770885,"elevation":-11.762247772133597,"azimuth":129.28365683166024,"range":45526.30156500976,"height":38288.066185463744,"velocity":2.990367351622159},"x":-29,"y":300,"dx":-2.9754968507850843,"dy":-0.29785128607372363},{"OBJECT_ID":"2014-064B","OBJECT_NAME":"BREEZE-M R/B","NORAD_CAT_ID":"40278","OBJECT_TYPE":"ROCKET BODY","PERIOD":"1512.243","INCLINATION":"0.47","APOGEE":"39734.921","PERIGEE":"34793.466","ECCENTRICITY":"0.0566131","MEAN_MOTION":"0.95222787","TLE_LINE1":"1 40278U 14064B   16238.93816758 -.00000155  00000-0  00000+0 0  9994","TLE_LINE2":"2 40278   0.4700  80.6914 0566131 145.2013 129.3295  0.95222787  6436","LAUNCH_DATE":"2014-10-21","LAUNCH_SITE":"TYURATAM MISSILE AND SPACE COMPLEX","OWNER":"COMMONWEALTH OF INDEPENDENT STATES","ORBIT_TYPE":"Unclassified","OPERATIONAL_STATUS":"N/A, derelict rocket body","satInfo":{"lng":5.4484274220174,"lat":2.6857645712282476,"elevation":-5.514781138118273,"azimuth":309.5515725779826,"range":44533.16655496939,"height":37997.602874107724,"velocity":2.9718065907640465},"x":27,"y":-298,"dx":2.9583801675918875,"dy":0.28217228231635433},{"OBJECT_ID":"2014-082B","OBJECT_NAME":"BREEZE-M R/B","NORAD_CAT_ID":"40346","OBJECT_TYPE":"ROCKET BODY","PERIOD":"1293.391","INCLINATION":"1.4397","APOGEE":"35376.612","PERIGEE":"30513.149","ECCENTRICITY":"0.0618399","MEAN_MOTION":"1.1133521","TLE_LINE1":"1 40346U 14082B   16237.80401350 -.00000141  00000-0  00000+0 0  9998","TLE_LINE2":"2 40346   1.4397  99.5316 0618399  61.7743 304.6604  1.11335210  6837","LAUNCH_DATE":"2014-12-15","LAUNCH_SITE":"TYURATAM MISSILE AND SPACE COMPLEX","OWNER":"COMMONWEALTH OF INDEPENDENT STATES","ORBIT_TYPE":"Unclassified","OPERATIONAL_STATUS":"N/A, derelict rocket body","satInfo":{"lng":-17.311001290340755,"lat":1.9372498850229138,"elevation":-7.468992116037674,"azimuth":332.31100129034076,"range":38883.91138254895,"height":32197.88198390214,"velocity":3.244913784717775},"x":-72,"y":-242,"dx":3.097931142355066,"dy":-0.9655506757690524},{"OBJECT_ID":"2014-083A","OBJECT_NAME":"O3B FM10","NORAD_CAT_ID":"40348","OBJECT_TYPE":"PAYLOAD","PERIOD":"287.933","INCLINATION":"0.0344","APOGEE":"8069.875","PERIGEE":"8061.897","ECCENTRICITY":"0.0002762","MEAN_MOTION":"5.001158","TLE_LINE1":"1 40348U 14083A   16239.51175413 -.00000030  00000-0  00000+0 0  9996","TLE_LINE2":"2 40348   0.0344 357.6247 0002762 134.1919 228.2054  5.00115800 30872","LAUNCH_DATE":"2014-12-18","LAUNCH_SITE":"FRENCH GUIANA","OWNER":"O3B NETWORKS","ORBIT_TYPE":"Unclassified","OPERATIONAL_STATUS":"Operational","satInfo":{"lng":-127.44037710949105,"lat":-0.012072250914589973,"elevation":-23.769975207561362,"azimuth":82.44037710949104,"range":15779.449517665502,"height":8062.758113792265,"velocity":5.254902467517323},"x":-48,"y":39,"dx":-3.1946418828954206,"dy":-4.172321078628784},{"OBJECT_ID":"2014-083C","OBJECT_NAME":"O3B FM12","NORAD_CAT_ID":"40350","OBJECT_TYPE":"PAYLOAD","PERIOD":"287.933","INCLINATION":"0.036","APOGEE":"8069.890","PERIGEE":"8061.888","ECCENTRICITY":"0.000277","MEAN_MOTION":"5.00115652","TLE_LINE1":"1 40350U 14083C   16238.60087405 -.00000028 +00000-0 +00000-0 0  9999","TLE_LINE2":"2 40350 000.0360 355.8082 0002770 156.4298 207.7756 05.00115652030827","LAUNCH_DATE":"2014-12-18","LAUNCH_SITE":"FRENCH GUIANA","OWNER":"O3B NETWORKS","ORBIT_TYPE":"Unclassified","OPERATIONAL_STATUS":"Operational","satInfo":{"lng":72.47777875802011,"lat":0.0174868522991573,"elevation":-23.74070818859985,"azimuth":242.52222124197988,"range":15779.321064050573,"height":8065.8878022080335,"velocity":5.253764732377101},"x":57,"y":-19,"dx":1.5817806873509146,"dy":5.0099913892434085},{"OBJECT_ID":"2014-083D","OBJECT_NAME":"O3B FM9","NORAD_CAT_ID":"40351","OBJECT_TYPE":"PAYLOAD","PERIOD":"287.933","INCLINATION":"0.0346","APOGEE":"8069.780","PERIGEE":"8062.012","ECCENTRICITY":"0.0002689","MEAN_MOTION":"5.0011526","TLE_LINE1":"1 40351U 14083D   16238.57867597 -.00000028  00000-0  00000+0 0  9993","TLE_LINE2":"2 40351   0.0346 353.1395 0002689 145.3992 221.4806  5.00115260 30821","LAUNCH_DATE":"2014-12-18","LAUNCH_SITE":"FRENCH GUIANA","OWNER":"O3B NETWORKS","ORBIT_TYPE":"Unclassified","OPERATIONAL_STATUS":"Operational","satInfo":{"lng":110.81579018879022,"lat":-0.0010868345479369051,"elevation":-23.753001700286095,"azimuth":204.18420981120977,"range":15783.217720745175,"height":8068.090318544889,"velocity":5.252965206844281},"x":56,"y":23,"dx":-1.8667177653478644,"dy":4.910092488828623},{"OBJECT_ID":"2014-083E","OBJECT_NAME":"FREGAT R/B","NORAD_CAT_ID":"40352","OBJECT_TYPE":"ROCKET BODY","PERIOD":"276.566","INCLINATION":"0.0612","APOGEE":"7692.891","PERIGEE":"7673.495","ECCENTRICITY":"0.0006897","MEAN_MOTION":"5.20670821","TLE_LINE1":"1 40352U 14083E   16238.46724938 -.00000025 +00000-0 +00000-0 0  9991","TLE_LINE2":"2 40352 000.0612 250.8641 0006897 032.5044 076.5535 05.20670821032073","LAUNCH_DATE":"2014-12-18","LAUNCH_SITE":"FRENCH GUIANA","OWNER":"COMMONWEALTH OF INDEPENDENT STATES","ORBIT_TYPE":"Unclassified","OPERATIONAL_STATUS":"N/A, derelict rocket body","satInfo":{"lng":-143.30009144747598,"lat":0.3507521055166863,"elevation":-24.046660862711377,"azimuth":98.30009144747595,"range":15390.533168576,"height":7676.974602131928,"velocity":5.327164151475857},"x":-35,"y":48,"dx":-4.271195550826953,"dy":-3.1836404419101},{"OBJECT_ID":"2015-005A","OBJECT_NAME":"INMARSAT 5-F2","NORAD_CAT_ID":"40384","OBJECT_TYPE":"PAYLOAD","PERIOD":"1436.121","INCLINATION":"0.0187","APOGEE":"35789.702","PERIGEE":"35784.456","ECCENTRICITY":"6.22e-05","MEAN_MOTION":"1.00270064","TLE_LINE1":"1 40384U 15005A   16239.21276200 -.00000314  00000-0  00000+0 0  9999","TLE_LINE2":"2 40384   0.0187 134.6307 0000622 156.5994  65.2438  1.00270064  5755","LAUNCH_DATE":"2015-02-01","LAUNCH_SITE":"TYURATAM MISSILE AND SPACE COMPLEX","OWNER":"INTERNATIONAL MARITIME SATELLITE ORGANIZATION (INMARSAT)","ORBIT_TYPE":"Geosynchronous","OPERATIONAL_STATUS":"Operational","satInfo":{"lng":-60.55296404894706,"lat":-1.3548524596609166,"elevation":-9.892900100863859,"azimuth":15.552964048947047,"range":42799.89859377508,"height":35797.132738263135,"velocity":3.074261557852249},"x":-233,"y":-139,"dx":1.5113647644282082,"dy":-2.6770993024041907}]